IRIDIUM 159             
1 43578U 18061K   24308.47618473 -.00000061  00000+0 -28847-4 0  9991
2 43578  86.3921 303.5642 0001987  89.3925 270.7499 14.34217435328715
IRIDIUM 180             
1 43922U 19002A   24308.19660732  .00000722  00000+0  25065-3 0  9994
2 43922  86.3980 240.5196 0002158  82.8913 277.2529 14.34216372304329
IRIDIUM 176             
1 43923U 19002B   24308.45164824  .00005411  00000+0  85335-3 0  9991
2 43923  86.6109 240.4232 0002182  94.9888 265.1578 14.72270409312331
IRIDIUM 168             
1 43924U 19002C   24308.32979559  .00001152  00000+0  40434-3 0  9996
2 43924  86.3982 240.5243 0002083  85.9920 274.1514 14.34219076304284
IRIDIUM 173             
1 43925U 19002D   24307.89848843  .00000047  00000+0  96281-5 0  9994
2 43925  86.3982 240.6180 0002056  82.4944 277.6485 14.34216293304209
IRIDIUM 169             
1 43926U 19002E   24308.44552959  .00001860  00000+0  60154-3 0  9999
2 43926  86.4188 272.0233 0003755 102.2821 257.8798 14.38605020305290
IRIDIUM 172             
1 43927U 19002F   24307.89216978  .00000335  00000+0  11267-3 0  9993
2 43927  86.3979 240.6272 0002078  82.0909 278.0523 14.34208957304217
IRIDIUM 175             
1 43928U 19002G   24308.17435342  .00006003  00000+0  94753-3 0  9993
2 43928  86.1558 205.8764 0003106  76.8357 283.3206 14.72244100312284
